[Satellite]
VERSION=1.1
NAME=ScatSat
NICKNAME=ScatSat
TLE1=1 41790U 16059H   20156.84602660  .00000373  00000-0  10521-3 0  9993
TLE2=2 41790  98.1614 197.5079 0005299 334.7029  25.3871 14.50921847195397
STATUS=0
